[
  {
    "CCSDS_OMM_VERS": "3.0",
    "COMMENT": "GENERATED VIA SPACE-TRACK.ORG API",
    "CREATION_DATE": "2026-02-19T17:59:09",
    "ORIGINATOR": "18 SPCS",
    "OBJECT_NAME": "FENGYUN 1C DEB",
    "OBJECT_ID": "1999-025BAB",
    "CENTER_NAME": "EARTH",
    "REF_FRAME": "TEME",
    "TIME_SYSTEM": "UTC",
    "MEAN_ELEMENT_THEORY": "SGP4",
    "EPOCH": "2026-02-19T15:22:51.523104",
    "MEAN_MOTION": "13.95607445",
    "ECCENTRICITY": "0.00745748",
    "INCLINATION": "99.0768",
    "RA_OF_ASC_NODE": "107.0090",
    "ARG_OF_PERICENTER": "223.6566",
    "MEAN_ANOMALY": "290.8627",
    "EPHEMERIS_TYPE": "0",
    "CLASSIFICATION_TYPE": "U",
    "NORAD_CAT_ID": "30937",
    "ELEMENT_SET_NO": "999",
    "REV_AT_EPOCH": "96677",
    "BSTAR": "-0.00006049204400",
    "MEAN_MOTION_DOT": "-0.00000128",
    "MEAN_MOTION_DDOT": "0.0000000000000",
    "SEMIMAJOR_AXIS": "7287.183",
    "PERIOD": "103.181",
    "APOAPSIS": "963.392",
    "PERIAPSIS": "854.704",
    "OBJECT_TYPE": "DEBRIS",
    "RCS_SIZE": "SMALL",
    "COUNTRY_CODE": "PRC",
    "LAUNCH_DATE": "1999-05-10",
    "SITE": "TSC",
    "DECAY_DATE": null,
    "FILE": "5039972",
    "GP_ID": "313165104",
    "TLE_LINE0": "0 FENGYUN 1C DEB",
    "TLE_LINE1": "1 30937U 99025BAB 26050.64087411 -.00000128  00000-0 -60492-4 0  9999",
    "TLE_LINE2": "2 30937  99.0768 107.0090 0074575 223.6566 290.8627 13.95607445966771"
  },
  {
    "CCSDS_OMM_VERS": "3.0",
    "COMMENT": "GENERATED VIA SPACE-TRACK.ORG API",
    "CREATION_DATE": "2026-02-19T17:59:09",
    "ORIGINATOR": "18 SPCS",
    "OBJECT_NAME": "FENGYUN 1C DEB",
    "OBJECT_ID": "1999-025BMD",
    "CENTER_NAME": "EARTH",
    "REF_FRAME": "TEME",
    "TIME_SYSTEM": "UTC",
    "MEAN_ELEMENT_THEORY": "SGP4",
    "EPOCH": "2026-02-19T15:22:37.445952",
    "MEAN_MOTION": "14.05333948",
    "ECCENTRICITY": "0.00574161",
    "INCLINATION": "99.3622",
    "RA_OF_ASC_NODE": "306.0517",
    "ARG_OF_PERICENTER": "234.1741",
    "MEAN_ANOMALY": "155.3993",
    "EPHEMERIS_TYPE": "0",
    "CLASSIFICATION_TYPE": "U",
    "NORAD_CAT_ID": "31247",
    "ELEMENT_SET_NO": "999",
    "REV_AT_EPOCH": "96489",
    "BSTAR": "0.00057958804000",
    "MEAN_MOTION_DOT": "0.00000905",
    "MEAN_MOTION_DDOT": "0.0000000000000",
    "SEMIMAJOR_AXIS": "7253.520",
    "PERIOD": "102.467",
    "APOAPSIS": "917.032",
    "PERIAPSIS": "833.738",
    "OBJECT_TYPE": "DEBRIS",
    "RCS_SIZE": "SMALL",
    "COUNTRY_CODE": "PRC",
    "LAUNCH_DATE": "1999-05-10",
    "SITE": "TSC",
    "DECAY_DATE": null,
    "FILE": "5039972",
    "GP_ID": "313164710",
    "TLE_LINE0": "0 FENGYUN 1C DEB",
    "TLE_LINE1": "1 31247U 99025BMD 26050.64071118  .00000905  00000-0  57959-3 0  9995",
    "TLE_LINE2": "2 31247  99.3622 306.0517 0057416 234.1741 155.3993 14.05333948964898"
  },
  {
    "CCSDS_OMM_VERS": "3.0",
    "COMMENT": "GENERATED VIA SPACE-TRACK.ORG API",
    "CREATION_DATE": "2026-02-19T17:59:09",
    "ORIGINATOR": "18 SPCS",
    "OBJECT_NAME": "CZ-4 DEB",
    "OBJECT_ID": "1999-057GW",
    "CENTER_NAME": "EARTH",
    "REF_FRAME": "TEME",
    "TIME_SYSTEM": "UTC",
    "MEAN_ELEMENT_THEORY": "SGP4",
    "EPOCH": "2026-02-19T15:22:32.769984",
    "MEAN_MOTION": "14.57552017",
    "ECCENTRICITY": "0.00736553",
    "INCLINATION": "98.4585",
    "RA_OF_ASC_NODE": "115.7585",
    "ARG_OF_PERICENTER": "125.0473",
    "MEAN_ANOMALY": "35.7275",
    "EPHEMERIS_TYPE": "0",
    "CLASSIFICATION_TYPE": "U",
    "NORAD_CAT_ID": "26313",
    "ELEMENT_SET_NO": "999",
    "REV_AT_EPOCH": "36489",
    "BSTAR": "0.00048896074000",
    "MEAN_MOTION_DOT": "0.00002258",
    "MEAN_MOTION_DDOT": "0.0000000000000",
    "SEMIMAJOR_AXIS": "7079.226",
    "PERIOD": "98.796",
    "APOAPSIS": "753.234",
    "PERIAPSIS": "648.949",
    "OBJECT_TYPE": "DEBRIS",
    "RCS_SIZE": "SMALL",
    "COUNTRY_CODE": "PRC",
    "LAUNCH_DATE": "1999-10-14",
    "SITE": "TSC",
    "DECAY_DATE": null,
    "FILE": "5039972",
    "GP_ID": "313161998",
    "TLE_LINE0": "0 CZ-4 DEB",
    "TLE_LINE1": "1 26313U 99057GW  26050.64065706  .00002258  00000-0  48896-3 0  9997",
    "TLE_LINE2": "2 26313  98.4585 115.7585 0073655 125.0473  35.7275 14.57552017364892"
  },
  {
    "CCSDS_OMM_VERS": "3.0",
    "COMMENT": "GENERATED VIA SPACE-TRACK.ORG API",
    "CREATION_DATE": "2026-02-19T17:59:09",
    "ORIGINATOR": "18 SPCS",
    "OBJECT_NAME": "FENGYUN 1C DEB",
    "OBJECT_ID": "1999-025AYD",
    "CENTER_NAME": "EARTH",
    "REF_FRAME": "TEME",
    "TIME_SYSTEM": "UTC",
    "MEAN_ELEMENT_THEORY": "SGP4",
    "EPOCH": "2026-02-19T15:22:32.699136",
    "MEAN_MOTION": "14.06058400",
    "ECCENTRICITY": "0.00549257",
    "INCLINATION": "98.7743",
    "RA_OF_ASC_NODE": "101.1525",
    "ARG_OF_PERICENTER": "356.1529",
    "MEAN_ANOMALY": "156.5157",
    "EPHEMERIS_TYPE": "0",
    "CLASSIFICATION_TYPE": "U",
    "NORAD_CAT_ID": "30891",
    "ELEMENT_SET_NO": "999",
    "REV_AT_EPOCH": "96950",
    "BSTAR": "0.00052945127000",
    "MEAN_MOTION_DOT": "0.00000838",
    "MEAN_MOTION_DDOT": "0.0000000000000",
    "SEMIMAJOR_AXIS": "7251.028",
    "PERIOD": "102.414",
    "APOAPSIS": "912.720",
    "PERIAPSIS": "833.067",
    "OBJECT_TYPE": "DEBRIS",
    "RCS_SIZE": "SMALL",
    "COUNTRY_CODE": "PRC",
    "LAUNCH_DATE": "1999-05-10",
    "SITE": "TSC",
    "DECAY_DATE": null,
    "FILE": "5039972",
    "GP_ID": "313165088",
    "TLE_LINE0": "0 FENGYUN 1C DEB",
    "TLE_LINE1": "1 30891U 99025AYD 26050.64065624  .00000838  00000-0  52945-3 0  9999",
    "TLE_LINE2": "2 30891  98.7743 101.1525 0054926 356.1529 156.5157 14.06058400969500"
  },
  {
    "CCSDS_OMM_VERS": "3.0",
    "COMMENT": "GENERATED VIA SPACE-TRACK.ORG API",
    "CREATION_DATE": "2026-02-19T17:59:09",
    "ORIGINATOR": "18 SPCS",
    "OBJECT_NAME": "CZ-6A DEB",
    "OBJECT_ID": "2024-140DM",
    "CENTER_NAME": "EARTH",
    "REF_FRAME": "TEME",
    "TIME_SYSTEM": "UTC",
    "MEAN_ELEMENT_THEORY": "SGP4",
    "EPOCH": "2026-02-19T15:22:31.211328",
    "MEAN_MOTION": "14.29877396",
    "ECCENTRICITY": "0.00390360",
    "INCLINATION": "89.0034",
    "RA_OF_ASC_NODE": "287.4299",
    "ARG_OF_PERICENTER": "253.2019",
    "MEAN_ANOMALY": "106.4893",
    "EPHEMERIS_TYPE": "0",
    "CLASSIFICATION_TYPE": "U",
    "NORAD_CAT_ID": "60708",
    "ELEMENT_SET_NO": "999",
    "REV_AT_EPOCH": "7942",
    "BSTAR": "0.00062779308000",
    "MEAN_MOTION_DOT": "0.00001642",
    "MEAN_MOTION_DDOT": "0.0000000000000",
    "SEMIMAJOR_AXIS": "7170.278",
    "PERIOD": "100.708",
    "APOAPSIS": "820.133",
    "PERIAPSIS": "764.153",
    "OBJECT_TYPE": "DEBRIS",
    "RCS_SIZE": "MEDIUM",
    "COUNTRY_CODE": "PRC",
    "LAUNCH_DATE": "2024-08-06",
    "SITE": "TSC",
    "DECAY_DATE": null,
    "FILE": "5039972",
    "GP_ID": "313181755",
    "TLE_LINE0": "0 CZ-6A DEB",
    "TLE_LINE1": "1 60708U 24140DM  26050.64063902  .00001642  00000-0  62779-3 0  9992",
    "TLE_LINE2": "2 60708  89.0034 287.4299 0039036 253.2019 106.4893 14.29877396 79420"
  },
  {
    "CCSDS_OMM_VERS": "3.0",
    "COMMENT": "GENERATED VIA SPACE-TRACK.ORG API",
    "CREATION_DATE": "2026-02-19T17:59:09",
    "ORIGINATOR": "18 SPCS",
    "OBJECT_NAME": "SL-16 DEB",
    "OBJECT_ID": "1992-076E",
    "CENTER_NAME": "EARTH",
    "REF_FRAME": "TEME",
    "TIME_SYSTEM": "UTC",
    "MEAN_ELEMENT_THEORY": "SGP4",
    "EPOCH": "2026-02-19T15:22:29.179200",
    "MEAN_MOTION": "13.76145050",
    "ECCENTRICITY": "0.01918422",
    "INCLINATION": "71.0387",
    "RA_OF_ASC_NODE": "160.0415",
    "ARG_OF_PERICENTER": "37.9386",
    "MEAN_ANOMALY": "25.5502",
    "EPHEMERIS_TYPE": "0",
    "CLASSIFICATION_TYPE": "U",
    "NORAD_CAT_ID": "22223",
    "ELEMENT_SET_NO": "999",
    "REV_AT_EPOCH": "66904",
    "BSTAR": "0.00014578189000",
    "MEAN_MOTION_DOT": "0.00000120",
    "MEAN_MOTION_DDOT": "0.0000000000000",
    "SEMIMAJOR_AXIS": "7355.729",
    "PERIOD": "104.640",
    "APOAPSIS": "1118.708",
    "PERIAPSIS": "836.480",
    "OBJECT_TYPE": "DEBRIS",
    "RCS_SIZE": "SMALL",
    "COUNTRY_CODE": "CIS",
    "LAUNCH_DATE": "1992-11-17",
    "SITE": "TTMTR",
    "DECAY_DATE": null,
    "FILE": "5039972",
    "GP_ID": "313160807",
    "TLE_LINE0": "0 SL-16 DEB",
    "TLE_LINE1": "1 22223U 92076E   26050.64061550  .00000120  00000-0  14578-3 0  9996",
    "TLE_LINE2": "2 22223  71.0387 160.0415 0191842  37.9386  25.5502 13.76145050669043"
  },
  {
    "CCSDS_OMM_VERS": "3.0",
    "COMMENT": "GENERATED VIA SPACE-TRACK.ORG API",
    "CREATION_DATE": "2026-02-19T17:59:09",
    "ORIGINATOR": "18 SPCS",
    "OBJECT_NAME": "COSMOS 2251 DEB",
    "OBJECT_ID": "1993-036LU",
    "CENTER_NAME": "EARTH",
    "REF_FRAME": "TEME",
    "TIME_SYSTEM": "UTC",
    "MEAN_ELEMENT_THEORY": "SGP4",
    "EPOCH": "2026-02-19T15:22:22.480608",
    "MEAN_MOTION": "14.65746629",
    "ECCENTRICITY": "0.00205812",
    "INCLINATION": "74.0032",
    "RA_OF_ASC_NODE": "295.7200",
    "ARG_OF_PERICENTER": "65.0112",
    "MEAN_ANOMALY": "317.5863",
    "EPHEMERIS_TYPE": "0",
    "CLASSIFICATION_TYPE": "U",
    "NORAD_CAT_ID": "34274",
    "ELEMENT_SET_NO": "999",
    "REV_AT_EPOCH": "89685",
    "BSTAR": "0.00077146403000",
    "MEAN_MOTION_DOT": "0.00004188",
    "MEAN_MOTION_DDOT": "0.0000000000000",
    "SEMIMAJOR_AXIS": "7052.816",
    "PERIOD": "98.243",
    "APOAPSIS": "689.197",
    "PERIAPSIS": "660.166",
    "OBJECT_TYPE": "DEBRIS",
    "RCS_SIZE": "SMALL",
    "COUNTRY_CODE": "CIS",
    "LAUNCH_DATE": "1993-06-16",
    "SITE": "PKMTR",
    "DECAY_DATE": null,
    "FILE": "5039972",
    "GP_ID": "313166809",
    "TLE_LINE0": "0 COSMOS 2251 DEB",
    "TLE_LINE1": "1 34274U 93036LU  26050.64053797  .00004188  00000-0  77146-3 0  9994",
    "TLE_LINE2": "2 34274  74.0032 295.7200 0020581  65.0112 317.5863 14.65746629896853"
  }
]